satname,norad_id,inclination_deg,eccentricity,mean_motion_rev_per_day,perigee_km,apogee_km,l1,l2
STARLINK-1284,45390,53.0554,0.0001403,15.06400724,546.2377128920825,548.180965074801,1 45390U 20019AG  25363.49148265 -.00000269  00000+0  84403-6 0  9993,2 45390  53.0554 101.7539 0001403 115.1570 244.9564 15.06400724319421
STARLINK-1297,45395,53.0548,0.0001387,15.06422952,546.1806781688028,548.1017503454377,1 45395U 20019AM  25363.59468116  .00007739  00000+0  53751-3 0  9996,2 45395  53.0548 101.2878 0001387  79.0701 281.0444 15.06422952318622
STARLINK-1307,45397,53.0545,0.0001445,15.06413686,546.168905831466,548.1703194425172,1 45397U 20019AP  25363.58730463  .00002793  00000+0  20627-3 0  9995,2 45397  53.0545 101.3191 0001445  91.3459 268.7696 15.06413686319268
STARLINK-1255,45399,53.0469,0.0002267,15.40376293,443.45108760716084,446.54469696732394,1 45399U 20019AR  25363.79037296  .00095708  00000+0  23142-2 0  9996,2 45399  53.0469  75.9977 0002267  41.7572 318.3604 15.40376293319622
STARLINK-1260,45404,53.0554,0.0001049,15.06392624,546.5076929730349,547.9606358433266,1 45404U 20019AW  25363.45555053 -.00001211  00000+0 -62448-4 0  9994,2 45404  53.0554  91.9124 0001049  86.6624 273.4485 15.06392624319276
STARLINK-1263,45405,53.0542,0.0001264,15.06404813,546.3214446325683,548.0721690189348,1 45405U 20019AX  25363.50714911  .00001550  00000+0  12293-3 0  9997,2 45405  53.0542  91.6818 0001264 101.0808 259.0323 15.06404813319282
STARLINK-1265,45406,53.0548,9.48e-05,15.06388699,546.58966776537,547.9027204189697,1 45406U 20019AY  25363.51452538 -.00002681  00000+0 -16122-3 0  9996,2 45406  53.0548  91.6481 0000948  76.9487 283.1607 15.06388699319282
STARLINK-1278,45408,53.0499,0.0004711,15.42463087,435.6310247007068,442.05398278913435,1 45408U 20019BA  25363.50754457  .00117177  00000+0  26335-2 0  9993,2 45408  53.0499 106.5475 0004711 213.5376 146.5331 15.42463087319085
STARLINK-1296,45412,53.0578,9.85e-05,15.0639611,546.5413322463655,547.9056282609754,1 45412U 20019BE  25363.51820995 -.00000683  00000+0 -27006-4 0  9993,2 45412  53.0578  91.6290 0000985  91.3957 268.7145 15.06396110319287
STARLINK-1298,45413,53.0425,0.0004363,15.65792067,368.0171148373847,373.90637840368527,1 45413U 20019BF  25363.91670139  .00203225  00000+0  19244-2 0  9999,2 45413  53.0425  43.9506 0004363  73.2459  43.3669 15.65792067  5948
STARLINK-1309,45414,53.0585,0.0002508,15.0640564,545.4573991214502,548.9311452875882,1 45414U 20019BG  25363.53295191 -.00002384  00000+0 -14117-3 0  9999,2 45414  53.0585  91.5512 0002508 154.0419 206.0696 15.06405640319270
STARLINK-1316,45415,53.0554,0.0001214,15.06397202,546.3793950625686,548.0608717745627,1 45415U 20019BH  25363.49241062 -.00000407  00000+0 -84256-5 0  9990,2 45415  53.0554  91.7462 0001214  75.6214 284.4910 15.06397202319304
STARLINK-1318,45416,53.0455,0.00039,15.73012214,347.6695252533991,352.9177011316888,1 45416U 20019BJ  25363.91670139  .00191503  00000+0  13482-2 0  9995,2 45416  53.0455  32.4114 0003900  37.0559 237.5250 15.73012214  6017
STARLINK-1286,45417,53.0503,0.0001829,15.4362272,434.1817444802409,436.67414653730793,1 45417U 20019BK  25363.60331926  .00050262  00000+0  11014-2 0  9995,2 45417  53.0503 105.8298 0001829 251.9452 108.1354 15.43622720319377
STARLINK-1308,45419,53.0567,0.0001371,15.06396592,546.2725362678184,548.1714697064363,1 45419U 20019BM  25362.66399589  .00000577  00000+0  57643-4 0  9995,2 45419  53.0567 125.4639 0001371  95.2652 264.8494 15.06396592318760
STARLINK-1329,45531,53.0546,0.0001701,15.42776007,436.7612729048833,439.0800957290876,1 45531U 20025A   25363.44796385  .00095538  00000+0  21330-2 0  9992,2 45531  53.0546  57.9355 0001701  36.6983 323.4138 15.42776007314563
STARLINK-1338,45532,53.0559,0.0001165,15.34168129,462.59545829561284,464.18953466829316,1 45532U 20025B   25363.91670139  .01564053  00000+0  42493-1 0  9999,2 45532  53.0559  58.3054 0001165  96.9995  40.0713 15.34168129  5834
STARLINK-1350,45535,53.0745,0.0001747,15.34079096,462.4619393368257,464.8524622305795,1 45535U 20025E   25363.41257611  .00019618  00000+0  59620-3 0  9996,2 45535  53.0745   2.6936 0001747  83.9921 276.1279 15.34079096315361
STARLINK-1362,45538,53.055,0.0001278,15.06390436,546.35580708406,548.1259336677276,1 45538U 20025H   25363.47208082 -.00002018  00000+0 -11663-3 0  9996,2 45538  53.0550  61.5577 0001278  88.8542 271.2594 15.06390436314510
STARLINK-1368,45540,53.0564,0.0001676,15.06398395,546.0557877937308,548.3771662792333,1 45540U 20025K   25363.47675718 -.00001678  00000+0 -93802-4 0  9990,2 45540  53.0564  61.8156 0001676  92.9498 267.1683 15.06398395314506
STARLINK-1371,45542,53.0539,0.0001194,15.18496072,509.5626638811509,511.20764297138976,1 45542U 20025M   25363.91670139  .01944853  00000+0  84123-1 0  9996,2 45542  53.0539  59.5459 0001194 107.5604  72.1668 15.18496072  5842
STARLINK-1372,45543,53.0545,0.0001456,15.06400834,546.2006714717045,548.217332227443,1 45543U 20025N   25363.48411592  .00005317  00000+0  37556-3 0  9997,2 45543  53.0545  61.7837 0001456  99.8458 260.2695 15.06400834313600
STARLINK-1373,45544,53.0543,0.0001696,15.14338477,521.8171875899452,524.1580490604802,1 45544U 20025P   25363.91670139  .01968105  00000+0  97173-1 0  9993,2 45544  53.0543  59.7172 0001696  90.7865  59.7487 15.14338477  5785
STARLINK-1294,45551,53.0424,0.0002735,15.71881179,351.6797114666251,355.36192829410084,1 45551U 20025W   25363.91670139  .00153697  00000+0  11415-2 0  9998,2 45551  53.0424 327.8713 0002735 122.3730 159.1155 15.71881179  6007
STARLINK-1325,45554,53.0478,0.0010043,15.84702683,310.43795110088286,323.88612875247964,1 45554U 20025Z   25363.91670139  .00185336  00000+0  76830-3 0  9999,2 45554  53.0478 317.6507 0010043  88.2708 140.9006 15.84702683  6046
STARLINK-1327,45555,53.0545,0.0001242,15.22976911,496.0132291798009,497.72098019940495,1 45555U 20025AA  25363.91670139  .01100984  00000+0  42756-1 0  9995,2 45555  53.0545  39.3313 0001242  92.6431  47.7045 15.22976911  5784
STARLINK-1356,45564,53.0564,0.000135,15.06413641,546.2348341421011,548.1046669647503,1 45564U 20025AK  25363.81032050  .00004102  00000+0  29401-3 0  9996,2 45564  53.0564  40.3181 0001350  87.8523 272.2621 15.06413641314830
STARLINK-1357,45565,53.0604,0.0001782,15.42206958,438.3823364246291,440.812176913706,1 45565U 20025AL  25363.75419891  .00126256  00000+0  28585-2 0  9998,2 45565  53.0604  12.8204 0001782  28.1562 331.9539 15.42206958315222
STARLINK-1361,45567,53.0584,0.0002264,15.06276926,546.020803387446,549.1567720241192,1 45567U 20025AN  25363.43069259  .00034355  00000+0  23217-2 0  9999,2 45567  53.0584  42.0249 0002264  82.7854 277.3392 15.06276926314783
STARLINK-1363,45568,53.0521,0.0008328,15.52891331,402.63746930945945,413.940940796595,1 45568U 20025AP  25363.47066826  .00126591  00000+0  19760-2 0  9993,2 45568  53.0521  22.5798 0008328 343.5069  16.5668 15.52891331315054
STARLINK-1366,45569,53.0502,0.0008487,15.50153966,410.5097190473889,422.04255590694265,1 45569U 20025AQ  25363.91670139  .00178683  00000+0  30520-2 0  9997,2 45569  53.0502  20.8991 0008487 358.2727  40.3972 15.50153966  5951
STARLINK-1376,45570,53.055,0.0001367,15.06391927,546.2896021008564,548.1829991612494,1 45570U 20025AR  25363.49333420  .00000354  00000+0  42651-4 0  9990,2 45570  53.0550  41.7441 0001367  84.3404 275.7741 15.06391927314781
STARLINK-1320,45572,53.0551,0.0005125,15.52789596,405.1074265721645,412.0638172596282,1 45572U 20025AT  25363.11857250  .00188631  00000+0  29309-2 0  9991,2 45572  53.0551 329.9163 0005125 105.6869 254.4706 15.52789596315784
STARLINK-1321,45573,53.0567,0.0001248,15.24163506,492.44085789703604,494.15596817613005,1 45573U 20025AU  25363.91670139  .01066347  00000+0  40085-1 0  9992,2 45573  53.0567  29.1985 0001248  87.5057  97.1894 15.24163506  5830
STARLINK-1328,45576,53.0432,0.000142,15.98710031,277.0515971566665,278.9419391468218,1 45576U 20025AX  25363.91670139  .00536575  13477-3  11062-2 0  9999,2 45576  53.0432 334.1529 0001420 116.9873 158.5127 15.98710031  6005
STARLINK-1331,45578,53.0559,0.0001161,15.06410622,546.3749740414451,547.9830324173945,1 45578U 20025AZ  25363.78911181  .00002091  00000+0  15920-3 0  9994,2 45578  53.0559  30.4097 0001161  63.6719 296.4389 15.06410622314985
STARLINK-1333,45580,53.0555,0.0001409,15.06396489,546.2465355405011,548.1981017965027,1 45580U 20025BB  25363.33115238  .00001319  00000+0  10745-3 0  9999,2 45580  53.0555  42.4688 0001409  83.4919 276.6231 15.06396489314766
STARLINK-1335,45581,53.0539,0.0001062,15.06392266,546.4997871016058,547.9707361699775,1 45581U 20025BC  25363.80019263 -.00000873  00000+0 -39739-4 0  9994,2 45581  53.0539  30.3666 0001062 104.1264 255.9843 15.06392266314971
STARLINK-1337,45582,53.0558,0.0001483,15.0641585,546.1359584099373,548.1900023841226,1 45582U 20025BD  25363.35785663  .00001885  00000+0  14537-3 0  9999,2 45582  53.0558  32.3525 0001483  85.2103 274.9056 15.06415850314902
STARLINK-1347,45586,53.0523,0.0001784,15.40920748,442.1736205920597,444.60754163300135,1 45586U 20025BH  25363.91670139  .00162624  00000+0  38217-2 0  9995,2 45586  53.0523   2.9275 0001784  48.2119 282.2810 15.40920748  5927
STARLINK-1360,45588,53.0363,0.0004714,16.02643385,263.96901473185153,270.2341456652621,1 45588U 20025BK  25362.96294481  .00627118  19384-3  10286-2 0  9992,2 45588  53.0363 265.0517 0004714 151.0076 209.1217 16.02643385316655
STARLINK-1364,45589,53.0538,0.0001437,15.06405288,546.2001807684564,548.1905212861411,1 45589U 20025BL  25363.49424934  .00003047  00000+0  22332-3 0  9996,2 45589  53.0538  31.7396 0001437  86.0328 274.0825 15.06405288314924
STARLINK-1365,45590,53.056,0.0001015,15.06400819,546.5061251985189,547.9119704462264,1 45590U 20025BM  25363.44356194 -.00000307  00000+0 -17414-5 0  9990,2 45590  53.0560  61.9644 0001015  78.0233 282.0870 15.06400819314519
